[{"OBJECT_NAME":"HELIOS 1B","OBJECT_ID":"1999-064A","EPOCH":"2026-04-29T16:37:36.807168","MEAN_MOTION":14.87874218,"ECCENTRICITY":4.07e-5,"INCLINATION":98.165,"RA_OF_ASC_NODE":23.4255,"ARG_OF_PERICENTER":114.811,"MEAN_ANOMALY":245.3148,"EPHEMERIS_TYPE":0,"CLASSIFICATION_TYPE":"U","NORAD_CAT_ID":25977,"ELEMENT_SET_NO":999,"REV_AT_EPOCH":69284,"BSTAR":0.00019478,"MEAN_MOTION_DOT":1.724e-5,"MEAN_MOTION_DDOT":0},{"OBJECT_NAME":"TERRA","OBJECT_ID":"1999-068A","EPOCH":"2026-04-29T21:28:48.266976","MEAN_MOTION":14.61063796,"ECCENTRICITY":0.0003006,"INCLINATION":97.9497,"RA_OF_ASC_NODE":171.3468,"ARG_OF_PERICENTER":48.4672,"MEAN_ANOMALY":124.4466,"EPHEMERIS_TYPE":0,"CLASSIFICATION_TYPE":"U","NORAD_CAT_ID":25994,"ELEMENT_SET_NO":999,"REV_AT_EPOCH":40255,"BSTAR":9.6995e-5,"MEAN_MOTION_DOT":4.32e-6,"MEAN_MOTION_DDOT":0},{"OBJECT_NAME":"SL-16 R/B","OBJECT_ID":"2000-006B","EPOCH":"2026-04-29T21:09:07.551360","MEAN_MOTION":14.15833034,"ECCENTRICITY":0.0014476,"INCLINATION":71.0042,"RA_OF_ASC_NODE":350.1986,"ARG_OF_PERICENTER":105.8583,"MEAN_ANOMALY":254.4137,"EPHEMERIS_TYPE":0,"CLASSIFICATION_TYPE":"U","NORAD_CAT_ID":26070,"ELEMENT_SET_NO":999,"REV_AT_EPOCH":35580,"BSTAR":0.00015095,"MEAN_MOTION_DOT":2.5e-6,"MEAN_MOTION_DDOT":0},{"OBJECT_NAME":"TITAN 4B R/B","OBJECT_ID":"2000-047B","EPOCH":"2026-04-29T18:34:44.111424","MEAN_MOTION":15.09938546,"ECCENTRICITY":0.0042813,"INCLINATION":67.9883,"RA_OF_ASC_NODE":256.8138,"ARG_OF_PERICENTER":337.296,"MEAN_ANOMALY":22.6294,"EPHEMERIS_TYPE":0,"CLASSIFICATION_TYPE":"U","NORAD_CAT_ID":26474,"ELEMENT_SET_NO":999,"REV_AT_EPOCH":40062,"BSTAR":0.00020388,"MEAN_MOTION_DOT":3.248e-5,"MEAN_MOTION_DDOT":0},{"OBJECT_NAME":"ENVISAT","OBJECT_ID":"2002-009A","EPOCH":"2026-04-29T20:18:58.140000","MEAN_MOTION":14.39052973,"ECCENTRICITY":0.0001133,"INCLINATION":98.3804,"RA_OF_ASC_NODE":72.2528,"ARG_OF_PERICENTER":87.6697,"MEAN_ANOMALY":283.3277,"EPHEMERIS_TYPE":0,"CLASSIFICATION_TYPE":"U","NORAD_CAT_ID":27386,"ELEMENT_SET_NO":999,"REV_AT_EPOCH":26653,"BSTAR":4.6428e-5,"MEAN_MOTION_DOT":1.01e-6,"MEAN_MOTION_DDOT":0},{"OBJECT_NAME":"IDEFIX & ARIANE 42P R/B","OBJECT_ID":"2002-021B","EPOCH":"2026-04-29T19:35:42.074880","MEAN_MOTION":14.31057935,"ECCENTRICITY":0.001266,"INCLINATION":98.5924,"RA_OF_ASC_NODE":57.8305,"ARG_OF_PERICENTER":41.16,"MEAN_ANOMALY":319.0535,"EPHEMERIS_TYPE":0,"CLASSIFICATION_TYPE":"U","NORAD_CAT_ID":27422,"ELEMENT_SET_NO":999,"REV_AT_EPOCH":25133,"BSTAR":0.00011607,"MEAN_MOTION_DOT":2.62e-6,"MEAN_MOTION_DDOT":0},{"OBJECT_NAME":"AQUA","OBJECT_ID":"2002-022A","EPOCH":"2026-04-29T20:59:37.719168","MEAN_MOTION":14.62081375,"ECCENTRICITY":0.0002076,"INCLINATION":98.4248,"RA_OF_ASC_NODE":88.205,"ARG_OF_PERICENTER":91.4783,"MEAN_ANOMALY":320.9326,"EPHEMERIS_TYPE":0,"CLASSIFICATION_TYPE":"U","NORAD_CAT_ID":27424,"ELEMENT_SET_NO":999,"REV_AT_EPOCH":27621,"BSTAR":0.00019558,"MEAN_MOTION_DOT":9.33e-6,"MEAN_MOTION_DDOT":0},{"OBJECT_NAME":"CZ-4B R/B","OBJECT_ID":"2002-024C","EPOCH":"2026-04-29T19:09:57.430368","MEAN_MOTION":14.14556248,"ECCENTRICITY":0.0049256,"INCLINATION":98.8739,"RA_OF_ASC_NODE":172.9224,"ARG_OF_PERICENTER":237.1343,"MEAN_ANOMALY":236.0165,"EPHEMERIS_TYPE":0,"CLASSIFICATION_TYPE":"U","NORAD_CAT_ID":27432,"ELEMENT_SET_NO":999,"REV_AT_EPOCH":23646,"BSTAR":4.3831e-5,"MEAN_MOTION_DOT":4.0e-7,"MEAN_MOTION_DDOT":0},{"OBJECT_NAME":"MIDORI II (ADEOS-II)","OBJECT_ID":"2002-056A","EPOCH":"2026-04-29T20:04:32.005920","MEAN_MOTION":14.2932133,"ECCENTRICITY":9.93e-5,"INCLINATION":98.7845,"RA_OF_ASC_NODE":78.6961,"ARG_OF_PERICENTER":140.678,"MEAN_ANOMALY":219.4474,"EPHEMERIS_TYPE":0,"CLASSIFICATION_TYPE":"U","NORAD_CAT_ID":27597,"ELEMENT_SET_NO":999,"REV_AT_EPOCH":21760,"BSTAR":0.00013961,"MEAN_MOTION_DOT":3.1e-6,"MEAN_MOTION_DDOT":0},{"OBJECT_NAME":"H-2A R/B","OBJECT_ID":"2002-056E","EPOCH":"2026-04-29T20:37:04.022112","MEAN_MOTION":14.33796453,"ECCENTRICITY":0.0070501,"INCLINATION":98.3281,"RA_OF_ASC_NODE":78.3049,"ARG_OF_PERICENTER":10.2117,"MEAN_ANOMALY":43.5374,"EPHEMERIS_TYPE":0,"CLASSIFICATION_TYPE":"U","NORAD_CAT_ID":27601,"ELEMENT_SET_NO":999,"REV_AT_EPOCH":22144,"BSTAR":0.00014254,"MEAN_MOTION_DOT":3.66e-6,"MEAN_MOTION_DDOT":0},{"OBJECT_NAME":"CZ-4B R/B","OBJECT_ID":"2003-049C","EPOCH":"2026-04-29T13:06:16.697376","MEAN_MOTION":14.55063386,"ECCENTRICITY":0.0049311,"INCLINATION":98.6898,"RA_OF_ASC_NODE":116.46,"ARG_OF_PERICENTER":76.8495,"MEAN_ANOMALY":283.8197,"EPHEMERIS_TYPE":0,"CLASSIFICATION_TYPE":"U","NORAD_CAT_ID":28059,"ELEMENT_SET_NO":999,"REV_AT_EPOCH":19399,"BSTAR":0.00011236,"MEAN_MOTION_DOT":4.41e-6,"MEAN_MOTION_DDOT":0},{"OBJECT_NAME":"CZ-2C R/B","OBJECT_ID":"2004-012C","EPOCH":"2026-04-29T17:41:06.025920","MEAN_MOTION":15.70952549,"ECCENTRICITY":0.001317,"INCLINATION":97.713,"RA_OF_ASC_NODE":190.0914,"ARG_OF_PERICENTER":122.991,"MEAN_ANOMALY":237.2619,"EPHEMERIS_TYPE":0,"CLASSIFICATION_TYPE":"U","NORAD_CAT_ID":28222,"ELEMENT_SET_NO":999,"REV_AT_EPOCH":21227,"BSTAR":0.00061685,"MEAN_MOTION_DOT":0.00077824,"MEAN_MOTION_DDOT":0},{"OBJECT_NAME":"SL-16 R/B","OBJECT_ID":"2004-021B","EPOCH":"2026-04-29T10:34:34.659552","MEAN_MOTION":14.14603163,"ECCENTRICITY":0.00069143,"INCLINATION":70.9981,"RA_OF_ASC_NODE":125.9903,"ARG_OF_PERICENTER":305.5467,"MEAN_ANOMALY":54.501,"EPHEMERIS_TYPE":0,"CLASSIFICATION_TYPE":"U","NORAD_CAT_ID":28353,"ELEMENT_SET_NO":999,"REV_AT_EPOCH":13001,"BSTAR":-8.4486843e-5,"MEAN_MOTION_DOT":-2.1e-6,"MEAN_MOTION_DDOT":0},{"OBJECT_NAME":"CZ-4B R/B","OBJECT_ID":"2004-035C","EPOCH":"2026-04-29T19:24:05.812704","MEAN_MOTION":15.29877743,"ECCENTRICITY":0.0032688,"INCLINATION":97.3413,"RA_OF_ASC_NODE":153.4446,"ARG_OF_PERICENTER":144.6855,"MEAN_ANOMALY":215.656,"EPHEMERIS_TYPE":0,"CLASSIFICATION_TYPE":"U","NORAD_CAT_ID":28415,"ELEMENT_SET_NO":999,"REV_AT_EPOCH":18772,"BSTAR":0.00025712,"MEAN_MOTION_DOT":7.483e-5,"MEAN_MOTION_DDOT":0},{"OBJECT_NAME":"CZ-2C R/B","OBJECT_ID":"2004-046B","EPOCH":"2026-04-29T17:47:23.918784","MEAN_MOTION":14.27012164,"ECCENTRICITY":0.0139571,"INCLINATION":98.197,"RA_OF_ASC_NODE":31.5427,"ARG_OF_PERICENTER":4.4412,"MEAN_ANOMALY":355.7973,"EPHEMERIS_TYPE":0,"CLASSIFICATION_TYPE":"U","NORAD_CAT_ID":28480,"ELEMENT_SET_NO":999,"REV_AT_EPOCH":11578,"BSTAR":8.8875e-5,"MEAN_MOTION_DOT":1.98e-6,"MEAN_MOTION_DDOT":0},{"OBJECT_NAME":"ARIANE 5 R/B","OBJECT_ID":"2004-049H","EPOCH":"2026-04-29T08:38:03.050592","MEAN_MOTION":14.85362197,"ECCENTRICITY":0.00839153,"INCLINATION":98.269,"RA_OF_ASC_NODE":289.7377,"ARG_OF_PERICENTER":186.0068,"MEAN_ANOMALY":174.0148,"EPHEMERIS_TYPE":0,"CLASSIFICATION_TYPE":"U","NORAD_CAT_ID":28499,"ELEMENT_SET_NO":999,"REV_AT_EPOCH":15331,"BSTAR":0.0001315744,"MEAN_MOTION_DOT":1.141e-5,"MEAN_MOTION_DDOT":0},{"OBJECT_NAME":"CZ-2D R/B","OBJECT_ID":"2005-024B","EPOCH":"2026-04-29T14:56:57.421248","MEAN_MOTION":15.64730668,"ECCENTRICITY":0.0005319,"INCLINATION":97.3528,"RA_OF_ASC_NODE":136.8065,"ARG_OF_PERICENTER":160.1443,"MEAN_ANOMALY":200.0024,"EPHEMERIS_TYPE":0,"CLASSIFICATION_TYPE":"U","NORAD_CAT_ID":28738,"ELEMENT_SET_NO":999,"REV_AT_EPOCH":14773,"BSTAR":0.0004274,"MEAN_MOTION_DOT":0.00041507,"MEAN_MOTION_DDOT":0}]
