HELIOS 1B               
1 25977U 99064A   26119.69278712  .00001724  00000+0  19478-3 0  9994
2 25977  98.1650  23.4255 0000407 114.8110 245.3148 14.87874218692845
TERRA                   
1 25994U 99068A   26119.89500309  .00000432  00000+0  96995-4 0  9994
2 25994  97.9497 171.3468 0003006  48.4672 124.4466 14.61063796402552
SL-16 R/B               
1 26070U 00006B   26119.88133740  .00000250  00000+0  15095-3 0  9993
2 26070  71.0042 350.1986 0014476 105.8583 254.4137 14.15833034355804
TITAN 4B R/B            
1 26474U 00047B   26119.77412166  .00003248  00000+0  20388-3 0  9997
2 26474  67.9883 256.8138 0042813 337.2960  22.6294 15.09938546400624
ENVISAT                 
1 27386U 02009A   26119.84650625  .00000101  00000+0  46428-4 0  9991
2 27386  98.3804  72.2528 0001133  87.6697 283.3277 14.39052973266534
IDEFIX & ARIANE 42P R/B 
1 27422U 02021B   26119.81645920  .00000262  00000+0  11607-3 0  9993
2 27422  98.5924  57.8305 0012660  41.1600 319.0535 14.31057935251339
AQUA                    
1 27424U 02022A   26119.87474212  .00000933  00000+0  19558-3 0  9994
2 27424  98.4248  88.2050 0002076  91.4783 320.9326 14.62081375276216
CZ-4B R/B               
1 27432U 02024C   26119.79858137  .00000040  00000+0  43831-4 0  9999
2 27432  98.8739 172.9224 0049256 237.1343 236.0165 14.14556248236464
MIDORI II (ADEOS-II)    
1 27597U 02056A   26119.83648155  .00000310  00000+0  13961-3 0  9998
2 27597  98.7845  78.6961 0000993 140.6780 219.4474 14.29321330217602
H-2A R/B                
1 27601U 02056E   26119.85907433  .00000366  00000+0  14254-3 0  9990
2 27601  98.3281  78.3049 0070501  10.2117  43.5374 14.33796453221449
CZ-4B R/B               
1 28059U 03049C   26119.54602659  .00000441  00000+0  11236-3 0  9990
2 28059  98.6898 116.4600 0049311  76.8495 283.8197 14.55063386193999
CZ-2C R/B               
1 28222U 04012C   26119.73687530  .00077824  00000+0  61685-3 0  9997
2 28222  97.7130 190.0914 0013170 122.9910 237.2619 15.70952549212276
SL-16 R/B               
1 28353U 04021B   26119.44067893 -.00000210  00000+0 -84487-4 0  9997
2 28353  70.9981 125.9903 0006914 305.5467  54.5010 14.14603163130015
CZ-4B R/B               
1 28415U 04035C   26119.80840061  .00007483  00000+0  25712-3 0  9999
2 28415  97.3413 153.4446 0032688 144.6855 215.6560 15.29877743187729
CZ-2C R/B               
1 28480U 04046B   26119.74124906  .00000198  00000+0  88875-4 0  9995
2 28480  98.1970  31.5427 0139571   4.4412 355.7973 14.27012164115780
ARIANE 5 R/B            
1 28499U 04049H   26119.35975753  .00001141  00000+0  13157-3 0  9998
2 28499  98.2690 289.7377 0083915 186.0068 174.0148 14.85362197153310
CZ-2D R/B               
1 28738U 05024B   26119.62288682  .00041507  00000+0  42740-3 0  9996
2 28738  97.3528 136.8065 0005319 160.1443 200.0024 15.64730668147736
